[Satellite]
VERSION=1.1
NAME=COSMOS 2474 (742)
NICKNAME=COSMOS 2474 (742)
TLE1=1 37829U 11055A   18020.71119313  .00000074  00000-0  00000-0 0  9999
TLE2=2 37829  64.5070 176.7965 0006284 239.8846 203.3693  2.13101858 49057
